[{"OBJECT_NAME":"SL-8 R/B","OBJECT_ID":"1990-078B","EPOCH":"2026-03-02T23:45:21.473568","MEAN_MOTION":14.8879551,"ECCENTRICITY":0.0363882,"INCLINATION":82.899,"RA_OF_ASC_NODE":257.3366,"ARG_OF_PERICENTER":36.5052,"MEAN_ANOMALY":326.0384,"EPHEMERIS_TYPE":0,"CLASSIFICATION_TYPE":"U","NORAD_CAT_ID":20775,"ELEMENT_SET_NO":999,"REV_AT_EPOCH":80830,"BSTAR":0.00048171,"MEAN_MOTION_DOT":0.00016397,"MEAN_MOTION_DDOT":0},{"OBJECT_NAME":"SL-8 R/B","OBJECT_ID":"1991-006B","EPOCH":"2026-03-03T09:03:33.225696","MEAN_MOTION":13.77493385,"ECCENTRICITY":0.0023401,"INCLINATION":82.9464,"RA_OF_ASC_NODE":174.7381,"ARG_OF_PERICENTER":55.3462,"MEAN_ANOMALY":5.2106,"EPHEMERIS_TYPE":0,"CLASSIFICATION_TYPE":"U","NORAD_CAT_ID":21088,"ELEMENT_SET_NO":999,"REV_AT_EPOCH":76320,"BSTAR":4.5358e-5,"MEAN_MOTION_DOT":6.1e-7,"MEAN_MOTION_DDOT":0},{"OBJECT_NAME":"OKEAN-3","OBJECT_ID":"1991-039A","EPOCH":"2026-03-03T07:05:16.098144","MEAN_MOTION":15.04748575,"ECCENTRICITY":0.0014335,"INCLINATION":82.52,"RA_OF_ASC_NODE":343.0367,"ARG_OF_PERICENTER":1.3088,"MEAN_ANOMALY":358.8173,"EPHEMERIS_TYPE":0,"CLASSIFICATION_TYPE":"U","NORAD_CAT_ID":21397,"ELEMENT_SET_NO":999,"REV_AT_EPOCH":86407,"BSTAR":0.00026958,"MEAN_MOTION_DOT":3.834e-5,"MEAN_MOTION_DDOT":0},{"OBJECT_NAME":"COSMOS 2151","OBJECT_ID":"1991-042A","EPOCH":"2026-03-03T13:07:01.479360","MEAN_MOTION":15.00076401,"ECCENTRICITY":0.0014136,"INCLINATION":82.493,"RA_OF_ASC_NODE":89.6036,"ARG_OF_PERICENTER":81.8958,"MEAN_ANOMALY":278.3869,"EPHEMERIS_TYPE":0,"CLASSIFICATION_TYPE":"U","NORAD_CAT_ID":21422,"ELEMENT_SET_NO":999,"REV_AT_EPOCH":86227,"BSTAR":0.00018906,"MEAN_MOTION_DOT":2.386e-5,"MEAN_MOTION_DDOT":0},{"OBJECT_NAME":"SL-14 R/B","OBJECT_ID":"1991-042B","EPOCH":"2026-03-03T11:28:04.255392","MEAN_MOTION":14.81821877,"ECCENTRICITY":0.0015598,"INCLINATION":82.491,"RA_OF_ASC_NODE":226.0076,"ARG_OF_PERICENTER":260.8398,"MEAN_ANOMALY":99.1051,"EPHEMERIS_TYPE":0,"CLASSIFICATION_TYPE":"U","NORAD_CAT_ID":21423,"ELEMENT_SET_NO":999,"REV_AT_EPOCH":85215,"BSTAR":7.6495e-5,"MEAN_MOTION_DOT":6.28e-6,"MEAN_MOTION_DDOT":0},{"OBJECT_NAME":"ERS-1","OBJECT_ID":"1991-050A","EPOCH":"2026-03-03T00:34:56.135712","MEAN_MOTION":14.39443076,"ECCENTRICITY":0.0031273,"INCLINATION":98.7885,"RA_OF_ASC_NODE":80.0912,"ARG_OF_PERICENTER":220.5217,"MEAN_ANOMALY":139.3642,"EPHEMERIS_TYPE":0,"CLASSIFICATION_TYPE":"U","NORAD_CAT_ID":21574,"ELEMENT_SET_NO":999,"REV_AT_EPOCH":81477,"BSTAR":0.00013389,"MEAN_MOTION_DOT":3.73e-6,"MEAN_MOTION_DDOT":0},{"OBJECT_NAME":"ARIANE 40 R/B","OBJECT_ID":"1991-050F","EPOCH":"2026-03-03T03:50:59.869824","MEAN_MOTION":14.42887827,"ECCENTRICITY":0.0004357,"INCLINATION":98.2026,"RA_OF_ASC_NODE":114.6416,"ARG_OF_PERICENTER":95.39,"MEAN_ANOMALY":264.7788,"EPHEMERIS_TYPE":0,"CLASSIFICATION_TYPE":"U","NORAD_CAT_ID":21610,"ELEMENT_SET_NO":999,"REV_AT_EPOCH":81805,"BSTAR":0.00011721,"MEAN_MOTION_DOT":3.5e-6,"MEAN_MOTION_DDOT":0},{"OBJECT_NAME":"INTERCOSMOS 25","OBJECT_ID":"1991-086A","EPOCH":"2026-03-03T03:15:35.048448","MEAN_MOTION":12.11978116,"ECCENTRICITY":0.1487061,"INCLINATION":82.6064,"RA_OF_ASC_NODE":313.969,"ARG_OF_PERICENTER":131.0519,"MEAN_ANOMALY":242.9013,"EPHEMERIS_TYPE":0,"CLASSIFICATION_TYPE":"U","NORAD_CAT_ID":21819,"ELEMENT_SET_NO":999,"REV_AT_EPOCH":49589,"BSTAR":0.00029578,"MEAN_MOTION_DOT":1.543e-5,"MEAN_MOTION_DDOT":0},{"OBJECT_NAME":"SL-8 R/B","OBJECT_ID":"1992-008B","EPOCH":"2026-03-03T02:46:33.000672","MEAN_MOTION":13.75969816,"ECCENTRICITY":0.0035217,"INCLINATION":82.9227,"RA_OF_ASC_NODE":272.6698,"ARG_OF_PERICENTER":151.254,"MEAN_ANOMALY":324.8285,"EPHEMERIS_TYPE":0,"CLASSIFICATION_TYPE":"U","NORAD_CAT_ID":21876,"ELEMENT_SET_NO":999,"REV_AT_EPOCH":70851,"BSTAR":-1.0117e-5,"MEAN_MOTION_DOT":6.0e-8,"MEAN_MOTION_DDOT":0},{"OBJECT_NAME":"SL-8 R/B","OBJECT_ID":"1992-020B","EPOCH":"2026-03-03T08:45:04.946112","MEAN_MOTION":13.75548624,"ECCENTRICITY":0.0027916,"INCLINATION":82.934,"RA_OF_ASC_NODE":158.4563,"ARG_OF_PERICENTER":317.1968,"MEAN_ANOMALY":107.553,"EPHEMERIS_TYPE":0,"CLASSIFICATION_TYPE":"U","NORAD_CAT_ID":21938,"ELEMENT_SET_NO":999,"REV_AT_EPOCH":70026,"BSTAR":7.6656e-5,"MEAN_MOTION_DOT":8.9e-7,"MEAN_MOTION_DDOT":0},{"OBJECT_NAME":"USA 81","OBJECT_ID":"1992-023A","EPOCH":"2026-03-03T07:14:31.016832","MEAN_MOTION":14.32365444,"ECCENTRICITY":0.0002589,"INCLINATION":85.0098,"RA_OF_ASC_NODE":135.1261,"ARG_OF_PERICENTER":82.4759,"MEAN_ANOMALY":277.6728,"EPHEMERIS_TYPE":0,"CLASSIFICATION_TYPE":"U","NORAD_CAT_ID":21949,"ELEMENT_SET_NO":999,"REV_AT_EPOCH":9387,"BSTAR":7.6723e-5,"MEAN_MOTION_DOT":2.27e-6,"MEAN_MOTION_DDOT":0},{"OBJECT_NAME":"COSMOS 2219","OBJECT_ID":"1992-076A","EPOCH":"2026-03-03T08:48:10.381248","MEAN_MOTION":14.14089002,"ECCENTRICITY":0.0019334,"INCLINATION":71.0618,"RA_OF_ASC_NODE":31.2845,"ARG_OF_PERICENTER":215.5019,"MEAN_ANOMALY":144.4818,"EPHEMERIS_TYPE":0,"CLASSIFICATION_TYPE":"U","NORAD_CAT_ID":22219,"ELEMENT_SET_NO":999,"REV_AT_EPOCH":71748,"BSTAR":0.00018266,"MEAN_MOTION_DOT":3.01e-6,"MEAN_MOTION_DDOT":0},{"OBJECT_NAME":"SL-16 R/B","OBJECT_ID":"1992-076B","EPOCH":"2026-03-03T11:37:11.462016","MEAN_MOTION":14.16859943,"ECCENTRICITY":0.0010623,"INCLINATION":70.9998,"RA_OF_ASC_NODE":201.4439,"ARG_OF_PERICENTER":107.8705,"MEAN_ANOMALY":315.1002,"EPHEMERIS_TYPE":0,"CLASSIFICATION_TYPE":"U","NORAD_CAT_ID":22220,"ELEMENT_SET_NO":999,"REV_AT_EPOCH":72095,"BSTAR":5.4693e-5,"MEAN_MOTION_DOT":6.2e-7,"MEAN_MOTION_DDOT":0},{"OBJECT_NAME":"COSMOS 2221","OBJECT_ID":"1992-080A","EPOCH":"2026-03-03T01:59:55.017024","MEAN_MOTION":14.96170383,"ECCENTRICITY":0.0013466,"INCLINATION":82.5019,"RA_OF_ASC_NODE":285.4101,"ARG_OF_PERICENTER":210.3026,"MEAN_ANOMALY":149.7419,"EPHEMERIS_TYPE":0,"CLASSIFICATION_TYPE":"U","NORAD_CAT_ID":22236,"ELEMENT_SET_NO":999,"REV_AT_EPOCH":77980,"BSTAR":0.00017727,"MEAN_MOTION_DOT":2.025e-5,"MEAN_MOTION_DDOT":0},{"OBJECT_NAME":"SL-16 R/B","OBJECT_ID":"1992-093B","EPOCH":"2026-03-03T07:24:16.070976","MEAN_MOTION":14.15449567,"ECCENTRICITY":0.0006286,"INCLINATION":71.0238,"RA_OF_ASC_NODE":17.6603,"ARG_OF_PERICENTER":300.4923,"MEAN_ANOMALY":59.5579,"EPHEMERIS_TYPE":0,"CLASSIFICATION_TYPE":"U","NORAD_CAT_ID":22285,"ELEMENT_SET_NO":999,"REV_AT_EPOCH":71225,"BSTAR":-4.3252e-5,"MEAN_MOTION_DOT":-1.32e-6,"MEAN_MOTION_DDOT":0},{"OBJECT_NAME":"COSMOS 2228","OBJECT_ID":"1992-094A","EPOCH":"2026-03-03T12:07:13.154304","MEAN_MOTION":14.97152546,"ECCENTRICITY":0.0017191,"INCLINATION":82.5144,"RA_OF_ASC_NODE":243.2332,"ARG_OF_PERICENTER":326.7174,"MEAN_ANOMALY":33.2966,"EPHEMERIS_TYPE":0,"CLASSIFICATION_TYPE":"U","NORAD_CAT_ID":22286,"ELEMENT_SET_NO":999,"REV_AT_EPOCH":77513,"BSTAR":0.00027655,"MEAN_MOTION_DOT":3.228e-5,"MEAN_MOTION_DDOT":0},{"OBJECT_NAME":"SL-16 R/B","OBJECT_ID":"1993-016B","EPOCH":"2026-03-03T11:45:07.413696","MEAN_MOTION":14.15305152,"ECCENTRICITY":0.0011355,"INCLINATION":71.0057,"RA_OF_ASC_NODE":228.203,"ARG_OF_PERICENTER":322.7971,"MEAN_ANOMALY":37.2364,"EPHEMERIS_TYPE":0,"CLASSIFICATION_TYPE":"U","NORAD_CAT_ID":22566,"ELEMENT_SET_NO":999,"REV_AT_EPOCH":70129,"BSTAR":0.00019271,"MEAN_MOTION_DOT":3.28e-6,"MEAN_MOTION_DDOT":0}]
